     3.04           N: GNSS NAV DATA    M: MIXED            RINEX VERSION / TYPE
sbf2rin-13.8.0                          20220102 001915 UTC PGM / RUN BY / DATE 
    18                                                      LEAP SECONDS
                                                            END OF HEADER
S43 2022 01 01 02 00 32 0.000000000000E+00 0.000000000000E+00-1.000000000000E+00
     0.000000000000E+00 0.000000000000E+00 0.000000000000E+00 6.200000000000E+01
     0.000000000000E+00 0.000000000000E+00 0.000000000000E+00 0.000000000000E+00
     0.000000000000E+00 0.000000000000E+00 0.000000000000E+00 0.000000000000E+00
S43 2022 01 01 02 02 40 0.000000000000E+00 0.000000000000E+00-1.000000000000E+00
     0.000000000000E+00 0.000000000000E+00 0.000000000000E+00 6.200000000000E+01
     0.000000000000E+00 0.000000000000E+00 0.000000000000E+00 0.000000000000E+00
     0.000000000000E+00 0.000000000000E+00 0.000000000000E+00 0.000000000000E+00
S43 2022 01 01 02 04 48 0.000000000000E+00 0.000000000000E+00-1.000000000000E+00
     0.000000000000E+00 0.000000000000E+00 0.000000000000E+00 6.200000000000E+01
     0.000000000000E+00 0.000000000000E+00 0.000000000000E+00 0.000000000000E+00
     0.000000000000E+00 0.000000000000E+00 0.000000000000E+00 0.000000000000E+00
S43 2022 01 01 02 06 56 0.000000000000E+00 0.000000000000E+00-1.000000000000E+00
     0.000000000000E+00 0.000000000000E+00 0.000000000000E+00 6.200000000000E+01
     0.000000000000E+00 0.000000000000E+00 0.000000000000E+00 0.000000000000E+00
     0.000000000000E+00 0.000000000000E+00 0.000000000000E+00 0.000000000000E+00
S43 2022 01 01 02 08 00 0.000000000000E+00 0.000000000000E+00-1.000000000000E+00
     0.000000000000E+00 0.000000000000E+00 0.000000000000E+00 6.200000000000E+01
     0.000000000000E+00 0.000000000000E+00 0.000000000000E+00 0.000000000000E+00
     0.000000000000E+00 0.000000000000E+00 0.000000000000E+00 0.000000000000E+00
S43 2022 01 01 02 10 08 0.000000000000E+00 0.000000000000E+00-1.000000000000E+00
     0.000000000000E+00 0.000000000000E+00 0.000000000000E+00 6.200000000000E+01
     0.000000000000E+00 0.000000000000E+00 0.000000000000E+00 0.000000000000E+00
     0.000000000000E+00 0.000000000000E+00 0.000000000000E+00 0.000000000000E+00
S43 2022 01 01 02 12 16 0.000000000000E+00 0.000000000000E+00-1.000000000000E+00
     0.000000000000E+00 0.000000000000E+00 0.000000000000E+00 6.200000000000E+01
     0.000000000000E+00 0.000000000000E+00 0.000000000000E+00 0.000000000000E+00
     0.000000000000E+00 0.000000000000E+00 0.000000000000E+00 0.000000000000E+00
S43 2022 01 01 02 14 24 0.000000000000E+00 0.000000000000E+00-1.000000000000E+00
     0.000000000000E+00 0.000000000000E+00 0.000000000000E+00 6.200000000000E+01
     0.000000000000E+00 0.000000000000E+00 0.000000000000E+00 0.000000000000E+00
     0.000000000000E+00 0.000000000000E+00 0.000000000000E+00 0.000000000000E+00
S43 2022 01 01 02 16 32 0.000000000000E+00 0.000000000000E+00-1.000000000000E+00
     0.000000000000E+00 0.000000000000E+00 0.000000000000E+00 6.200000000000E+01
     0.000000000000E+00 0.000000000000E+00 0.000000000000E+00 0.000000000000E+00
     0.000000000000E+00 0.000000000000E+00 0.000000000000E+00 0.000000000000E+00
S43 2022 01 01 02 18 40 0.000000000000E+00 0.000000000000E+00-1.000000000000E+00
     0.000000000000E+00 0.000000000000E+00 0.000000000000E+00 6.200000000000E+01
     0.000000000000E+00 0.000000000000E+00 0.000000000000E+00 0.000000000000E+00
     0.000000000000E+00 0.000000000000E+00 0.000000000000E+00 0.000000000000E+00
S43 2022 01 01 02 20 48 0.000000000000E+00 0.000000000000E+00-1.000000000000E+00
     0.000000000000E+00 0.000000000000E+00 0.000000000000E+00 6.200000000000E+01
     0.000000000000E+00 0.000000000000E+00 0.000000000000E+00 0.000000000000E+00
     0.000000000000E+00 0.000000000000E+00 0.000000000000E+00 0.000000000000E+00
S43 2022 01 01 02 22 56 0.000000000000E+00 0.000000000000E+00-1.000000000000E+00
     0.000000000000E+00 0.000000000000E+00 0.000000000000E+00 6.200000000000E+01
     0.000000000000E+00 0.000000000000E+00 0.000000000000E+00 0.000000000000E+00
     0.000000000000E+00 0.000000000000E+00 0.000000000000E+00 0.000000000000E+00
S43 2022 01 01 02 24 00 0.000000000000E+00 0.000000000000E+00-1.000000000000E+00
     0.000000000000E+00 0.000000000000E+00 0.000000000000E+00 6.200000000000E+01
     0.000000000000E+00 0.000000000000E+00 0.000000000000E+00 0.000000000000E+00
     0.000000000000E+00 0.000000000000E+00 0.000000000000E+00 0.000000000000E+00
S43 2022 01 01 02 26 08 0.000000000000E+00 0.000000000000E+00-1.000000000000E+00
     0.000000000000E+00 0.000000000000E+00 0.000000000000E+00 6.200000000000E+01
     0.000000000000E+00 0.000000000000E+00 0.000000000000E+00 0.000000000000E+00
     0.000000000000E+00 0.000000000000E+00 0.000000000000E+00 0.000000000000E+00
S43 2022 01 01 02 28 16 0.000000000000E+00 0.000000000000E+00-1.000000000000E+00
     0.000000000000E+00 0.000000000000E+00 0.000000000000E+00 6.200000000000E+01
     0.000000000000E+00 0.000000000000E+00 0.000000000000E+00 0.000000000000E+00
     0.000000000000E+00 0.000000000000E+00 0.000000000000E+00 0.000000000000E+00
S43 2022 01 01 02 30 24 0.000000000000E+00 0.000000000000E+00-1.000000000000E+00
     0.000000000000E+00 0.000000000000E+00 0.000000000000E+00 6.200000000000E+01
     0.000000000000E+00 0.000000000000E+00 0.000000000000E+00 0.000000000000E+00
     0.000000000000E+00 0.000000000000E+00 0.000000000000E+00 0.000000000000E+00
S43 2022 01 01 02 32 32 0.000000000000E+00 0.000000000000E+00-1.000000000000E+00
     0.000000000000E+00 0.000000000000E+00 0.000000000000E+00 6.200000000000E+01
     0.000000000000E+00 0.000000000000E+00 0.000000000000E+00 0.000000000000E+00
     0.000000000000E+00 0.000000000000E+00 0.000000000000E+00 0.000000000000E+00
S43 2022 01 01 02 34 40 0.000000000000E+00 0.000000000000E+00-1.000000000000E+00
     0.000000000000E+00 0.000000000000E+00 0.000000000000E+00 6.200000000000E+01
     0.000000000000E+00 0.000000000000E+00 0.000000000000E+00 0.000000000000E+00
     0.000000000000E+00 0.000000000000E+00 0.000000000000E+00 0.000000000000E+00
S43 2022 01 01 02 36 48 0.000000000000E+00 0.000000000000E+00-1.000000000000E+00
     0.000000000000E+00 0.000000000000E+00 0.000000000000E+00 6.200000000000E+01
     0.000000000000E+00 0.000000000000E+00 0.000000000000E+00 0.000000000000E+00
     0.000000000000E+00 0.000000000000E+00 0.000000000000E+00 0.000000000000E+00
S43 2022 01 01 02 38 56 0.000000000000E+00 0.000000000000E+00-1.000000000000E+00
     0.000000000000E+00 0.000000000000E+00 0.000000000000E+00 6.200000000000E+01
     0.000000000000E+00 0.000000000000E+00 0.000000000000E+00 0.000000000000E+00
     0.000000000000E+00 0.000000000000E+00 0.000000000000E+00 0.000000000000E+00
S43 2022 01 01 02 40 00 0.000000000000E+00 0.000000000000E+00-1.000000000000E+00
     0.000000000000E+00 0.000000000000E+00 0.000000000000E+00 6.200000000000E+01
     0.000000000000E+00 0.000000000000E+00 0.000000000000E+00 0.000000000000E+00
     0.000000000000E+00 0.000000000000E+00 0.000000000000E+00 0.000000000000E+00
S43 2022 01 01 02 42 08 0.000000000000E+00 0.000000000000E+00-1.000000000000E+00
     0.000000000000E+00 0.000000000000E+00 0.000000000000E+00 6.200000000000E+01
     0.000000000000E+00 0.000000000000E+00 0.000000000000E+00 0.000000000000E+00
     0.000000000000E+00 0.000000000000E+00 0.000000000000E+00 0.000000000000E+00
S43 2022 01 01 02 44 16 0.000000000000E+00 0.000000000000E+00-1.000000000000E+00
     0.000000000000E+00 0.000000000000E+00 0.000000000000E+00 6.200000000000E+01
     0.000000000000E+00 0.000000000000E+00 0.000000000000E+00 0.000000000000E+00
     0.000000000000E+00 0.000000000000E+00 0.000000000000E+00 0.000000000000E+00
S43 2022 01 01 02 46 24 0.000000000000E+00 0.000000000000E+00-1.000000000000E+00
     0.000000000000E+00 0.000000000000E+00 0.000000000000E+00 6.200000000000E+01
     0.000000000000E+00 0.000000000000E+00 0.000000000000E+00 0.000000000000E+00
     0.000000000000E+00 0.000000000000E+00 0.000000000000E+00 0.000000000000E+00
S43 2022 01 01 02 48 32 0.000000000000E+00 0.000000000000E+00-1.000000000000E+00
     0.000000000000E+00 0.000000000000E+00 0.000000000000E+00 6.200000000000E+01
     0.000000000000E+00 0.000000000000E+00 0.000000000000E+00 0.000000000000E+00
     0.000000000000E+00 0.000000000000E+00 0.000000000000E+00 0.000000000000E+00
S43 2022 01 01 02 50 40 0.000000000000E+00 0.000000000000E+00-1.000000000000E+00
     0.000000000000E+00 0.000000000000E+00 0.000000000000E+00 6.200000000000E+01
     0.000000000000E+00 0.000000000000E+00 0.000000000000E+00 0.000000000000E+00
     0.000000000000E+00 0.000000000000E+00 0.000000000000E+00 0.000000000000E+00
S43 2022 01 01 02 52 48 0.000000000000E+00 0.000000000000E+00-1.000000000000E+00
     0.000000000000E+00 0.000000000000E+00 0.000000000000E+00 6.200000000000E+01
     0.000000000000E+00 0.000000000000E+00 0.000000000000E+00 0.000000000000E+00
     0.000000000000E+00 0.000000000000E+00 0.000000000000E+00 0.000000000000E+00
S43 2022 01 01 02 54 56 0.000000000000E+00 0.000000000000E+00-1.000000000000E+00
     0.000000000000E+00 0.000000000000E+00 0.000000000000E+00 6.200000000000E+01
     0.000000000000E+00 0.000000000000E+00 0.000000000000E+00 0.000000000000E+00
     0.000000000000E+00 0.000000000000E+00 0.000000000000E+00 0.000000000000E+00
S43 2022 01 01 02 56 00 0.000000000000E+00 0.000000000000E+00-1.000000000000E+00
     0.000000000000E+00 0.000000000000E+00 0.000000000000E+00 6.200000000000E+01
     0.000000000000E+00 0.000000000000E+00 0.000000000000E+00 0.000000000000E+00
     0.000000000000E+00 0.000000000000E+00 0.000000000000E+00 0.000000000000E+00
